NORAD_CAT_ID,OBJECT_NAME,OBJECT_TYPE,EPOCH,MEAN_MOTION,ECCENTRICITY,INCLINATION,RA_OF_ASC_NODE,ARG_OF_PERICENTER,MEAN_ANOMALY,BSTAR,MEAN_MOTION_DOT,MEAN_MOTION_DDOT,TLE_LINE0,TLE_LINE1,TLE_LINE2,SEMIMAJOR_AXIS,PERIOD,APOGEE,PERIGEE,DECAYED
52332.0,STARLINK-3831,PAYLOAD,2024-06-25 03:14:52,15.08836279,0.0001513,53.2168,123.8843,107.8266,252.2891,-4.4522e-05,-9.96e-06,0.0,0 STARLINK-3831,1 52332U 22045B   24177.13533312 -.00000996  00000-0 -44522-4 0  9997,2 52332  53.2168 123.8843 0001513 107.8266 252.2891 15.08836279121654,6917.892,95.438,540.803,538.71,0.0
52332.0,STARLINK-3831,PAYLOAD,2024-06-26 03:05:39,15.08841553,0.0001357,53.2167,119.4221,87.8229,272.2919,4.2131e-05,3.83e-06,0.0,0 STARLINK-3831,1 52332U 22045B   24178.12892826  .00000383  00000-0  42131-4 0  9997,2 52332  53.2167 119.4221 0001357  87.8229 272.2919 15.08841553121807,6917.876,95.437,540.679,538.802,0.0
52332.0,STARLINK-3831,PAYLOAD,2024-06-27 01:21:03,15.08832547,0.0001259,53.217,115.2644,90.7909,269.3227,3.4842e-05,2.67e-06,0.0,0 STARLINK-3831,1 52332U 22045B   24179.05629626  .00000267  00000-0  34842-4 0  9997,2 52332  53.2170 115.2644 0001259  90.7909 269.3227 15.08832547121940,6917.903,95.438,540.639,538.897,0.0
52332.0,STARLINK-3831,PAYLOAD,2024-06-27 12:28:45,15.08840551,0.0001166,53.2169,113.1827,96.1033,264.0092,8.6731e-05,1.093e-05,0.0,0 STARLINK-3831,1 52332U 22045B   24179.51997075  .00001093  00000-0  86731-4 0  9996,2 52332  53.2169 113.1827 0001166  96.1033 264.0092 15.08840551122018,6917.879,95.438,540.55,538.937,0.0
52332.0,STARLINK-3831,PAYLOAD,2024-06-28 12:19:32,15.08849864,0.000134,53.216,108.7192,75.0663,285.0477,0.00014087,1.955e-05,0.0,0 STARLINK-3831,1 52332U 22045B   24180.51356593  .00001955  00000-0  14087-3 0  9993,2 52332  53.2160 108.7192 0001340  75.0663 285.0477 15.08849864122165,6917.85,95.437,540.642,538.788,0.0
52332.0,STARLINK-3831,PAYLOAD,2024-06-28 18:41:06,15.08829801,0.0001274,53.2159,107.5289,79.4571,280.6565,-6.4465e-05,-1.313e-05,0.0,0 STARLINK-3831,1 52332U 22045B   24180.77854521 -.00001313  00000-0 -64465-4 0  9991,2 52332  53.2159 107.5289 0001274  79.4571 280.6565 15.08829801122202,6917.912,95.438,540.658,538.895,0.0
52332.0,STARLINK-3831,PAYLOAD,2024-06-29 04:13:24,15.08841053,0.0001218,53.2164,105.7445,88.665,271.4481,3.3749e-05,2.49e-06,0.0,0 STARLINK-3831,1 52332U 22045B   24181.17597601  .00000249  00000-0  33749-4 0  9995,2 52332  53.2164 105.7445 0001218  88.6650 271.4481 15.08841053122264,6917.877,95.437,540.585,538.9,0.0
52332.0,STARLINK-3831,PAYLOAD,2024-06-29 12:10:19,15.08854339,0.0001884,53.2156,104.2588,73.7184,286.4015,0.00013317,1.833e-05,0.0,0 STARLINK-3831,1 52332U 22045B   24181.50716588  .00001833  00000-0  13317-3 0  9997,2 52332  53.2156 104.2588 0001884  73.7184 286.4015 15.08854339122319,6917.837,95.437,541.005,538.398,0.0
52332.0,STARLINK-3831,PAYLOAD,2024-06-30 04:04:12,15.08828454,0.0001138,53.2154,101.2832,97.9489,262.1632,-6.3647e-05,-1.3e-05,0.0,0 STARLINK-3831,1 52332U 22045B   24182.16959081 -.00001300  00000-0 -63647-4 0  9990,2 52332  53.2154 101.2832 0001138  97.9489 262.1632 15.08828454122410,6917.916,95.438,540.568,538.993,0.0
52332.0,STARLINK-3831,PAYLOAD,2024-06-30 12:01:07,15.08844549,0.0001402,53.2165,99.8016,74.3115,285.8031,5.2837e-06,-2.04e-06,0.0,0 STARLINK-3831,1 52332U 22045B   24182.50078118 -.00000204  00000-0  52837-5 0  9992,2 52332  53.2165  99.8016 0001402  74.3115 285.8031 15.08844549122460,6917.866,95.437,540.701,538.762,0.0
52332.0,STARLINK-3831,PAYLOAD,2024-06-30 18:22:40,15.088347,0.000156,53.2175,98.6103,82.0088,278.1081,0.00017046,2.426e-05,0.0,0 STARLINK-3831,1 52332U 22045B   24182.76574505  .00002426  00000-0  17046-3 0  9999,2 52332  53.2175  98.6103 0001560  82.0088 278.1081 15.08834700122508,6917.897,95.438,540.841,538.682,0.0
52332.0,STARLINK-3831,PAYLOAD,2024-07-01 11:51:53,15.08861656,0.0001366,53.2161,95.3394,81.7539,278.3608,0.00054442,8.392e-05,0.0,0 STARLINK-3831,1 52332U 22045B   24183.49437491  .00008392  00000-0  54442-3 0  9991,2 52332  53.2161  95.3394 0001366  81.7539 278.3608 15.08861656122619,6917.814,95.436,540.624,538.734,0.0
52332.0,STARLINK-3831,PAYLOAD,2024-07-01 21:24:13,15.08834089,0.0001187,53.2159,93.5567,84.6203,275.4924,0.00016936,2.408e-05,0.0,0 STARLINK-3831,1 52332U 22045B   24183.89182668  .00002408  00000-0  16936-3 0  9996,2 52332  53.2159  93.5567 0001187  84.6203 275.4924 15.08834089122674,6917.898,95.438,540.585,538.942,0.0
52332.0,STARLINK-3831,PAYLOAD,2024-07-01 22:59:36,15.08842247,0.0001313,53.2159,93.259,96.4296,263.6846,1.3507e-05,-7.3e-07,0.0,0 STARLINK-3831,1 52332U 22045B   24183.95806117 -.00000073  00000-0  13507-4 0  9994,2 52332  53.2159  93.2590 0001313  96.4296 263.6846 15.08842247122689,6917.874,95.437,540.647,538.83,0.0
52332.0,STARLINK-3831,PAYLOAD,2024-07-02 03:45:45,15.08850747,0.0001369,53.216,92.3653,97.1324,262.9824,0.0004142,6.312e-05,0.0,0 STARLINK-3831,1 52332U 22045B   24184.15677875  .00006312  00000-0  41420-3 0  9999,2 52332  53.2160  92.3653 0001369  97.1324 262.9824 15.08850747122718,6917.848,95.437,540.66,538.765,0.0
52332.0,STARLINK-3831,PAYLOAD,2024-07-02 21:15:00,15.0884041,0.000152,53.2172,89.0918,106.0622,254.0537,0.00044334,6.775e-05,0.0,0 STARLINK-3831,1 52332U 22045B   24184.88542298  .00006775  00000-0  44334-3 0  9999,2 52332  53.2172  89.0918 0001520 106.0622 254.0537 15.08840410122829,6917.879,95.438,540.796,538.693,0.0
52332.0,STARLINK-3831,PAYLOAD,2024-07-03 03:36:33,15.08857363,0.0001308,53.2159,87.9001,130.7967,229.3139,0.0008805,0.0001376,0.0,0 STARLINK-3831,1 52332U 22045B   24185.15038285  .00013760  00000-0  88050-3 0  9991,2 52332  53.2159  87.9001 0001308 130.7967 229.3139 15.08857363122866,6917.827,95.436,540.597,538.787,0.0
52332.0,STARLINK-3831,PAYLOAD,2024-07-03 21:05:46,15.08850159,0.0002462,53.215,84.6249,134.8573,225.262,0.00024056,3.543e-05,0.0,0 STARLINK-3831,1 52332U 22045B   24185.87901549  .00003543  00000-0  24056-3 0  9996,2 52332  53.2150  84.6249 0002462 134.8573 225.2620 15.08850159122973,6917.849,95.437,541.418,538.011,0.0
52332.0,STARLINK-3831,PAYLOAD,2024-07-04 03:27:20,15.08835885,0.000127,53.2166,83.4399,84.5146,275.5991,8.6901e-06,-1.5e-06,0.0,0 STARLINK-3831,1 52332U 22045B   24186.14398292 -.00000150  00000-0  86901-5 0  9993,2 52332  53.2166  83.4399 0001270  84.5146 275.5991 15.08835885123010,6917.893,95.438,540.637,538.879,0.0
52332.0,STARLINK-3831,PAYLOAD,2024-07-04 09:48:52,15.08838265,0.0001476,53.2179,82.2558,97.0726,263.0434,4.8552e-05,4.85e-06,0.0,0 STARLINK-3831,1 52332U 22045B   24186.40894280  .00000485  00000-0  48552-4 0  9999,2 52332  53.2179  82.2558 0001476  97.0726 263.0434 15.08838265123052,6917.886,95.438,540.772,538.73,0.0
52332.0,STARLINK-3831,PAYLOAD,2024-07-04 22:31:57,15.08836776,0.0001505,53.2182,79.8783,98.4031,261.7132,7.8516e-05,9.62e-06,0.0,0 STARLINK-3831,1 52332U 22045B   24186.93886528  .00000962  00000-0  78516-4 0  9996,2 52332  53.2182  79.8783 0001505  98.4031 261.7132 15.08836776123139,6917.89,95.438,540.796,538.714,0.0
52332.0,STARLINK-3831,PAYLOAD,2024-07-05 09:39:38,15.08856548,0.0001396,53.2176,77.7963,87.5875,272.5277,0.0003382,5.101e-05,0.0,0 STARLINK-3831,1 52332U 22045B   24187.40253458  .00005101  00000-0  33820-3 0  9997,2 52332  53.2176  77.7963 0001396  87.5875 272.5277 15.08856548123209,6917.83,95.437,540.661,538.729,0.0
52332.0,STARLINK-3831,PAYLOAD,2024-07-05 20:47:22,15.08832683,0.0001489,53.2182,75.7158,93.9811,266.1351,1.7794e-05,-5e-08,0.0,0 STARLINK-3831,1 52332U 22045B   24187.86622702 -.00000005  00000-0  17794-4 0  9991,2 52332  53.2182  75.7158 0001489  93.9811 266.1351 15.08832683123277,6917.903,95.438,540.798,538.738,0.0
52332.0,STARLINK-3831,PAYLOAD,2024-07-05 22:22:45,15.08835359,0.0001651,53.2179,75.4178,89.5852,270.533,8.0662e-05,9.96e-06,0.0,0 STARLINK-3831,1 52332U 22045B   24187.93246699  .00000996  00000-0  80662-4 0  9998,2 52332  53.2179  75.4178 0001651  89.5852 270.5330 15.08835359123289,6917.895,95.438,540.902,538.617,0.0
52332.0,STARLINK-3831,PAYLOAD,2024-07-06 09:30:26,15.08851256,0.0001478,53.2166,73.3357,85.2372,274.8788,0.00051345,7.896e-05,0.0,0 STARLINK-3831,1 52332U 22045B   24188.39614251  .00007896  00000-0  51345-3 0  9993,2 52332  53.2166  73.3357 0001478  85.2372 274.8788 15.08851256123354,6917.846,95.437,540.733,538.689,0.0
52332.0,STARLINK-3831,PAYLOAD,2024-07-06 20:38:08,15.08847207,0.0001768,53.2175,71.2522,77.6477,282.4713,0.00055712,8.591e-05,0.0,0 STARLINK-3831,1 52332U 22045B   24188.85982564  .00008591  00000-0  55712-3 0  9994,2 52332  53.2175  71.2522 0001768  77.6477 282.4713 15.08847207123420,6917.858,95.437,540.946,538.5,0.0
52332.0,STARLINK-3831,PAYLOAD,2024-07-06 22:13:31,15.08842899,0.0001604,53.2165,70.9565,87.1382,272.9794,0.00064004,9.914e-05,0.0,0 STARLINK-3831,1 52332U 22045B   24188.92606475  .00009914  00000-0  64004-3 0  9990,2 52332  53.2165  70.9565 0001604  87.1382 272.9794 15.08842899123438,6917.872,95.437,540.846,538.627,0.0
52332.0,STARLINK-3831,PAYLOAD,2024-07-07 09:21:13,15.08862437,0.0001629,53.217,68.8732,75.9109,284.2065,0.00076487,0.00011913,0.0,0 STARLINK-3831,1 52332U 22045B   24189.38973913  .00011913  00000-0  76487-3 0  9995,2 52332  53.2170  68.8732 0001629  75.9109 284.2065 15.08862437123500,6917.812,95.436,540.804,538.55,0.0
52332.0,STARLINK-3831,PAYLOAD,2024-07-07 20:28:55,15.08838121,0.0001501,53.2177,66.7908,84.2373,275.879,-7.3747e-05,-1.461e-05,0.0,0 STARLINK-3831,1 52332U 22045B   24189.85342204 -.00001461  00000-0 -73747-4 0  9996,2 52332  53.2177  66.7908 0001501  84.2373 275.8790 15.08838121123575,6917.886,95.438,540.79,538.713,0.0
52332.0,STARLINK-3831,PAYLOAD,2024-07-08 09:12:00,15.08847003,0.00014,53.2152,64.4142,82.8111,277.304,0.00089717,0.00014022,0.0,0 STARLINK-3831,1 52332U 22045B   24190.38334306  .00014022  00000-0  89717-3 0  9998,2 52332  53.2152  64.4142 0001400  82.8111 277.3040 15.08847003123658,6917.859,95.437,540.692,538.755,0.0
